{
  "metadata": {
    "responseInfo": {
      "status": 200,
      "developerMessage": "OK",
      "userMessage": "",
      "errorCode": "",
      "moreInfo": ""
    },
    "resultset": {
      "count": 16,
      "limit": 16,
      "offset": 0
    }
  },
  "results": [
    {
      "id": "50a3fea8c988d48611000014",
      "type": "signature",
      "petitionId": "226511",
      "name": "J. D.",
      "city": "Longmont",
      "state": "CO",
      "zip": "80504",
      "created": "1352924840"
    },
    {
      "id": "50a4041ab15a7af576000019",
      "type": "signature",
      "petitionId": "226511",
      "name": "N. R.",
      "city": "",
      "state": "",
      "zip": "77450",
      "created": "1352926234"
    },
    {
      "id": "50a406de704301152600000b",
      "type": "signature",
      "petitionId": "226511",
      "name": "A. M.",
      "city": "Raleigh",
      "state": "NC",
      "zip": "27604",
      "created": "1352926942"
    },
    {
      "id": "50a4076dc988d4256d000012",
      "type": "signature",
      "petitionId": "226511",
      "name": "J. A.",
      "city": "Owasso",
      "state": "OK",
      "zip": "74055",
      "created": "1352927085"
    },
    {
      "id": "50a409647043015728000009",
      "type": "signature",
      "petitionId": "226511",
      "name": "E. S.",
      "city": "Laramie",
      "state": "WY",
      "zip": "82070",
      "created": "1352927588"
    },
    {
      "id": "50a409c6c988d4187a00001f",
      "type": "signature",
      "petitionId": "226511",
      "name": "P. D.",
      "city": "Albany",
      "state": "OR",
      "zip": "97322",
      "created": "1352927686"
    },
    {
      "id": "50a40e3cc988d41b2c000005",
      "type": "signature",
      "petitionId": "226511",
      "name": "J. C.",
      "city": "Wilmington",
      "state": "NC",
      "zip": "28403",
      "created": "1352928828"
    },
    {
      "id": "50a40fd5c988d4723f000003",
      "type": "signature",
      "petitionId": "226511",
      "name": "T. M.",
      "city": "Dauphin Island",
      "state": "AL",
      "zip": "36528",
      "created": "1352929237"
    },
    {
      "id": "50a42150cde5b86625000014",
      "type": "signature",
      "petitionId": "226511",
      "name": "W. W.",
      "city": "Mankato",
      "state": "MN",
      "zip": "56001",
      "created": "1352933712"
    },
    {
      "id": "50a450fc6ce61cc57800000c",
      "type": "signature",
      "petitionId": "226511",
      "name": "M. P.",
      "city": "",
      "state": "",
      "zip": "55376",
      "created": "1352945916"
    },
    {
      "id": "50a453f7688938c60a000003",
      "type": "signature",
      "petitionId": "226511",
      "name": "K. O.",
      "city": "Yukon",
      "state": "OK",
      "zip": "73099",
      "created": "1352946679"
    },
    {
      "id": "50a45798b15a7a1b5700000b",
      "type": "signature",
      "petitionId": "226511",
      "name": "S. P.",
      "city": "Amarillo",
      "state": "TX",
      "zip": "79124",
      "created": "1352947608"
    },
    {
      "id": "50a470b52f2c88732800000e",
      "type": "signature",
      "petitionId": "226511",
      "name": "S. E.",
      "city": "Tucson",
      "state": "AZ",
      "zip": "85710",
      "created": "1352954037"
    },
    {
      "id": "50a474b92f2c88786000000f",
      "type": "signature",
      "petitionId": "226511",
      "name": "G. B.",
      "city": "",
      "state": "",
      "zip": "85749-9540",
      "created": "1352955065"
    },
    {
      "id": "50a47ca7704301066c000011",
      "type": "signature",
      "petitionId": "226511",
      "name": "M. S.",
      "city": "Brooklyn",
      "state": "NY",
      "zip": "11218",
      "created": "1352957095"
    },
    {
      "id": "50a47e1e8cce3fee2500000d",
      "type": "signature",
      "petitionId": "226511",
      "name": "R. A.",
      "city": "Gurnee",
      "state": "IL",
      "zip": "60031",
      "created": "1352957470"
    }
  ]
}